NOAA 15                 
1 25338U 98030A   22240.40258408  .00000107  00000+0  62757-4 0  9990
2 25338  98.6407 268.9843 0011550  88.7356 271.5147 14.26165088263522
DMSP 5D-3 F15 (USA 147) 
1 25991U 99067A   22240.39439976  .00000077  00000+0  61591-4 0  9996
2 25991  99.0573 233.2141 0009956 351.2270 145.7896 14.16563993173970
METEOSAT-8 (MSG-1)      
1 27509U 02040B   22240.11965785  .00000137  00000+0  00000+0 0  9990
2 27509   8.1662  50.2465 0001368 119.0729 251.4642  1.00272479 73328
DMSP 5D-3 F16 (USA 172) 
1 28054U 03048A   22240.51475943 -.00000001  00000+0  23400-4 0  9996
2 28054  98.9933 231.7110 0008360 110.0316   1.1081 14.13679375973204
NOAA 18                 
1 28654U 05018A   22240.37486712  .00000112  00000+0  84037-4 0  9996
2 28654  98.9448 310.7395 0015213 126.4527 233.8049 14.12768767890225
METEOSAT-9 (MSG-2)      
1 28912U 05049B   22240.12757736  .00000128  00000+0  00000+0 0  9997
2 28912   6.1751  65.8212 0000780 200.3779 161.7004  1.00271417 61156
EWS-G1 (GOES 13)        
1 29155U 06018A   22240.18799375  .00000035  00000+0  00000+0 0  9992
2 29155   0.7660  96.3079 0005817 103.9917 265.2395  1.00275203 59587
DMSP 5D-3 F17 (USA 191) 
1 29522U 06050A   22240.53134368  .00000010  00000+0  28248-4 0  9992
2 29522  98.7668 254.2341 0010885  59.9629 300.2623 14.14107578816097
FENGYUN 3A              
1 32958U 08026A   22240.47435474  .00000026  00000+0  32414-4 0  9996
2 32958  98.5088 200.1844 0008853 167.4827 192.6570 14.18734935738547
FENGYUN 2E              
1 33463U 08066A   22240.01715914 -.00000200  00000+0  00000+0 0  9998
2 33463   6.0598  64.8841 0002304  30.4351 333.5280  1.00265910 50165
NOAA 19                 
1 33591U 09005A   22240.52593194  .00000142  00000+0  10154-3 0  9993
2 33591  99.1435 276.1606 0013627 349.9691  10.1206 14.12602834698624
GOES 14                 
1 35491U 09033A   22240.39493576 -.00000093  00000+0  00000+0 0  9994
2 35491   0.4469 268.1213 0016662 301.1850 164.9194  1.00268427 48230
METEOR-M 1              
1 35865U 09049A   22240.43066932  .00000031  00000+0  32919-4 0  9993
2 35865  98.5348 208.6010 0002956  39.5274 320.6119 14.22351925671915
DMSP 5D-3 F18 (USA 210) 
1 35951U 09057A   22240.53403028  .00000171  00000+0  11359-3 0  9999
2 35951  98.7283 218.1639 0009942 239.1494 120.8701 14.13545496663295
GOES 15                 
1 36411U 10008A   22240.42322172  .00000051  00000+0  00000+0 0  9991
2 36411   0.4066 276.5788 0004687 249.9234 194.5006  1.00275848 45733
COMS 1                  
1 36744U 10032A   22239.90214396 -.00000346  00000+0  00000+0 0  9994
2 36744   1.2554  92.1501 0000863  57.5914 279.2801  1.00272719 37153
FENGYUN 3B              
1 37214U 10059A   22240.01894696 -.00000012  00000+0  17884-4 0  9990
2 37214  99.0940 247.2666 0022632 151.1693 209.0737 14.14262807611072
SUOMI NPP               
1 37849U 11061A   22240.54183167  .00000041  00000+0  40202-4 0  9991
2 37849  98.7342 178.1016 0001256  83.4107 101.0299 14.19539954561416
FENGYUN 2F              
1 38049U 12002A   22238.61927586 -.00000360  00000+0  00000+0 0  9998
2 38049   3.9572  79.1455 0000514 135.6425  95.1347  1.00267952 38944
METEOSAT-10 (MSG-3)     
1 38552U 12035B   22239.82629062  .00000059  00000+0  00000+0 0  9999
2 38552   1.6278  44.9933 0000295  47.4407 190.2827  1.00274804 36928
METOP-B                 
1 38771U 12049A   22240.49278098  .00000045  00000+0  40704-4 0  9996
2 38771  98.6902 299.1598 0001123 135.1075 285.8116 14.21503479515967
FENGYUN 3C              
1 39260U 13052A   22240.06567779  .00000040  00000+0  40845-4 0  9996
2 39260  98.4517 264.5438 0012258  70.1415 290.1078 14.15938513462058
METEOR-M 2              
1 40069U 14037A   22240.29985434 -.00000002  00000+0  18124-4 0  9990
2 40069  98.4314 254.8246 0006774 109.1805 251.0113 14.20716435422069
HIMAWARI-8              
1 40267U 14060A   22239.84424611 -.00000278  00000+0  00000+0 0  9994
2 40267   0.0273 212.0621 0000998 297.8251 270.7376  1.00273679 28824
FENGYUN 2G              
1 40367U 14090A   22239.86936193 -.00000301  00000+0  00000+0 0  9990
2 40367   2.1087  88.7774 0000624 248.3710  51.2985  1.00262230 28060
METEOSAT-11 (MSG-4)     
1 40732U 15034A   22239.78590966 -.00000009  00000+0  00000+0 0  9995
2 40732   0.4363  69.6995 0001159  41.0014 147.8195  1.00269680 26098
ELEKTRO-L 2             
1 41105U 15074A   22239.89334769 -.00000117  00000+0  00000+0 0  9993
2 41105   3.1633  87.3166 0002527  94.4187 101.5235  1.00271927 24584
HIMAWARI-9              
1 41836U 16064A   22239.84424611 -.00000278  00000+0  00000+0 0  9993
2 41836   0.0157 135.0164 0000576   9.0218 276.7176  1.00268162 21257
GOES 16                 
1 41866U 16071A   22240.31164538 -.00000250  00000+0  00000+0 0  9997
2 41866   0.0654 278.8520 0000572 293.0785 161.5604  1.00270652 21180
FENGYUN 4A              
1 41882U 16077A   22239.91697898 -.00000332  00000+0  00000+0 0  9996
2 41882   0.1476  85.7511 0001820  59.8227 265.1819  1.00277726 21056
CYGFM05                 
1 41884U 16078A   22240.00331785  .00001617  00000+0  82323-4 0  9990
2 41884  34.9557 116.1109 0014885   8.0715 352.0234 15.16629588315757
CYGFM04                 
1 41885U 16078B   22239.89849542  .00001668  00000+0  83610-4 0  9997
2 41885  34.9489 105.5940 0013092  24.5093 335.6240 15.17167540315680
CYGFM02                 
1 41886U 16078C   22239.82167430  .00001711  00000+0  85587-4 0  9994
2 41886  34.9580 108.3045 0013884  17.6821 342.4372 15.17204992315754
CYGFM01                 
1 41887U 16078D   22239.09268271  .00001431  00000+0  73427-4 0  9998
2 41887  34.9523 124.2903 0015429 359.3729   0.6962 15.16431222315465
CYGFM08                 
1 41888U 16078E   22239.84516940  .00001675  00000+0  84543-4 0  9992
2 41888  34.9493 111.9174 0014359  18.1482 341.9740 15.16909069315714
CYGFM06                 
1 41889U 16078F   22240.06448284  .00001718  00000+0  85929-4 0  9991
2 41889  34.9576 105.4580 0012854  19.6152 340.5053 15.17221884315865
CYGFM07                 
1 41890U 16078G   22239.72299951  .00001535  00000+0  77112-4 0  9991
2 41890  34.9513 106.4369 0012631  21.0495 339.0735 15.17151831315666
CYGFM03                 
1 41891U 16078H   22239.91921631  .00001618  00000+0  81182-4 0  9994
2 41891  34.9546 105.7054 0012151  20.6016 339.5184 15.17158491315838
FENGYUN 3D              
1 43010U 17072A   22240.33389315  .00000003  00000+0  22805-4 0  9993
2 43010  98.8185 184.5898 0002869  64.1004 296.0474 14.19219103247963
NOAA 20                 
1 43013U 17073A   22240.54022466  .00000012  00000+0  26460-4 0  9992
2 43013  98.7181 177.9749 0000907 112.6676 247.4596 14.19540061247456
GOES 17                 
1 43226U 18022A   22239.72531260  .00000096  00000+0  00000+0 0  9997
2 43226   0.1053 278.5957 0000168 232.2755 308.8533  1.00272071 16492
FENGYUN 2H              
1 43491U 18050A   22240.12715708 -.00000127  00000+0  00000+0 0  9995
2 43491   1.3233  95.8082 0004190  49.0641 316.2563  1.00267775 15585
METOP-C                 
1 43689U 18087A   22240.37708979  .00000043  00000+0  39727-4 0  9992
2 43689  98.6784 299.1754 0002842 168.3089 191.8155 14.21503444197524
GEO-KOMPSAT-2A          
1 43823U 18100A   22239.99345369 -.00000346  00000+0  00000+0 0  9998
2 43823   0.0253 123.5919 0001910 352.5418 345.9710  1.00268975 13732
METEOR-M2 2             
1 44387U 19038A   22240.32792585 -.00000007  00000+0  16100-4 0  9997
2 44387  98.7280 200.5504 0002395  73.8864 286.2582 14.23717859163632
FENGYUN 3E              
1 49008U 21062A   22240.32718058 -.00000002  00000+0  19871-4 0  9998
2 49008  98.7134 241.1582 0002589 120.7454 239.3987 14.19736929 59517
GOES 18                 
1 51850U 22021A   22240.56294687  .00000095  00000+0  00000+0 0  9995
2 51850   0.0288  66.9907 0002792 144.0801 191.3517  1.00272352  1880
